ONEWEB-0492             
1 54114U 22138B   25119.20016678  .00000088  00000+0  18836-3 0  9993
2 54114  87.9260  27.2630 0001663  81.4770 278.6551 13.19725255123103
ONEWEB-0495             
1 54115U 22138C   25118.72314768 -.00000007  00000+0 -50148-4 0  9997
2 54115  87.9259  27.3691 0001462  58.5605 301.5670 13.19724827122155
ONEWEB-0497             
1 54116U 22138D   25118.28088194  .00000042  00000+0  72374-4 0  9992
2 54116  87.9256  27.4313 0001783  76.2599 283.8732 13.19726310122082
ONEWEB-0499             
1 54117U 22138E   25118.71841975 -.00000012  00000+0 -62800-4 0  9997
2 54117  87.9260  27.3600 0002066  69.1609 290.9745 13.19725443122151
ONEWEB-0500             
1 54118U 22138F   25118.72157727  .00000008  00000+0 -11971-4 0  9991
2 54118  87.9254  27.3456 0001843  79.6689 280.4652 13.19725784122160
ONEWEB-0501             
1 54119U 22138G   25118.75158481  .00000041  00000+0  69597-4 0  9996
2 54119  87.9256  27.3336 0001634  65.8758 294.2545 13.19727069122142
ONEWEB-0502             
1 54120U 22138H   25118.73737056  .00000021  00000+0  20041-4 0  9996
2 54120  87.9254  27.3214 0001856  69.7884 290.3448 13.19725946122169
ONEWEB-0503             
1 54121U 22138J   25118.72631535  .00000026  00000+0  32235-4 0  9994
2 54121  87.9255  27.3286 0002159  75.6442 284.4930 13.19725631122153
